[{"OBJECT_NAME":"STARLINK-35222","OBJECT_ID":"2025-212B","EPOCH":"2026-03-09T22:42:07.468128","MEAN_MOTION":15.30211233,"ECCENTRICITY":0.00015061,"INCLINATION":53.1604,"RA_OF_ASC_NODE":344.4249,"ARG_OF_PERICENTER":66.5759,"MEAN_ANOMALY":293.54,"EPHEMERIS_TYPE":0,"CLASSIFICATION_TYPE":"U","NORAD_CAT_ID":65677,"ELEMENT_SET_NO":999,"REV_AT_EPOCH":2729,"BSTAR":0.00083331215,"MEAN_MOTION_DOT":0.00024411,"MEAN_MOTION_DDOT":0},{"OBJECT_NAME":"TRANSPORTER-1 OBJECT AA","OBJECT_ID":"2021-006AA","EPOCH":"2026-03-09T22:58:14.761920","MEAN_MOTION":15.29982294,"ECCENTRICITY":0.00086604,"INCLINATION":97.2381,"RA_OF_ASC_NODE":112.457,"ARG_OF_PERICENTER":185.709,"MEAN_ANOMALY":174.4054,"EPHEMERIS_TYPE":0,"CLASSIFICATION_TYPE":"U","NORAD_CAT_ID":47437,"ELEMENT_SET_NO":999,"REV_AT_EPOCH":28414,"BSTAR":0.0002197941,"MEAN_MOTION_DOT":6.312e-5,"MEAN_MOTION_DDOT":0}]
